OBJECT_NAME,OBJECT_ID,EPOCH,MEAN_MOTION,ECCENTRICITY,INCLINATION,RA_OF_ASC_NODE,ARG_OF_PERICENTER,MEAN_ANOMALY,EPHEMERIS_TYPE,CLASSIFICATION_TYPE,NORAD_CAT_ID,ELEMENT_SET_NO,REV_AT_EPOCH,BSTAR,MEAN_MOTION_DOT,MEAN_MOTION_DDOT
STARLINK-35671,2025-257N,2026-06-05T07:32:55.717728,15.30215023,.00015173,53.1577,169.7034,92.0733,268.0441,0,U,66392,999,3315,.70257879E-3,.20516E-3,0
STARLINK-35652,2025-257P,2026-06-05T07:25:29.615520,15.30208506,.00013552,53.1588,170.3819,81.3404,278.7751,0,U,66393,999,3314,.53415731E-3,.15498E-3,0
STARLINK-35672,2025-257Q,2026-06-05T07:17:48.382080,15.34423044,.0001234,53.1577,168.9296,99.3422,260.7720,0,U,66394,999,3316,.997E-3,.33484E-3,0
STARLINK-35681,2025-257R,2026-06-05T12:39:24.093216,15.30200133,.00011619,53.1555,168.8951,79.3746,280.7386,0,U,66395,999,3310,.65789718E-3,.19176E-3,0
STARLINK-35669,2025-257S,2026-06-05T16:07:17.023584,15.34407201,.00010833,53.1581,166.9572,89.4207,270.6920,0,U,66396,999,3322,.84836292E-3,.28402E-3,0
STARLINK-35510,2025-257T,2026-06-05T07:34:27.179040,15.30212049,.00019734,53.1575,169.7089,31.8627,328.2492,0,U,66397,999,3315,.64040402E-3,.18663E-3,0
STARLINK-35642,2025-257U,2026-06-05T15:40:08.354208,15.34361981,.00012622,53.1568,167.5514,108.4932,251.6208,0,U,66398,999,3321,.10808428E-2,.36274E-3,0
STARLINK-35657,2025-257V,2026-06-05T12:23:25.866240,15.34399018,.00011095,53.1564,168.1197,77.6950,282.4176,0,U,66399,999,3318,.69995611E-3,.23346E-3,0
STARLINK-35667,2025-257W,2026-06-05T07:23:51.600768,15.34417966,.0001287,53.1599,168.9575,77.6834,282.4313,0,U,66400,999,3316,.64866E-3,.21616E-3,0
STARLINK-35668,2025-257X,2026-06-05T07:20:50.039808,15.34410446,.0001142,53.1582,168.9403,97.5734,262.5399,0,U,66401,999,3316,.69744E-3,.23269E-3,0
STARLINK-35602,2025-257Z,2026-06-04T12:26:11.798304,15.34396374,.00012855,53.1586,172.5593,59.9730,300.1400,0,U,66403,999,3304,.66612379E-3,.22194E-3,0
STARLINK-35691,2025-257AA,2026-06-04T06:04:56.930016,15.34415376,.00012202,53.1580,173.7395,80.0242,280.0899,0,U,66404,999,3300,.10422376E-2,.35019E-3,0
STARLINK-35683,2025-257AB,2026-06-05T07:39:01.060128,15.34416753,.00013771,53.1577,169.0176,51.4427,308.6699,0,U,66405,999,3309,.77850849E-3,.26032E-3,0
STARLINK-34840,2025-257AC,2026-06-05T08:30:21.876768,15.34445331,.00008932,53.1582,168.5215,103.6727,256.4375,0,U,66406,999,3311,.79679252E-3,.26679E-3,0
STARLINK-35686,2025-257AD,2026-06-05T16:16:21.250272,15.34374136,.00025358,53.1567,166.9915,177.4814,182.6202,0,U,66407,999,3322,.84801914E-3,.28362E-3,0
STARLINK-35679,2025-257AE,2026-06-05T08:33:25.242624,15.34408500,.00010723,53.1576,168.5375,77.9176,282.1947,0,U,66408,999,3317,.54395447E-3,.18051E-3,0
STARLINK-35617,2025-259A,2026-06-05T15:57:42.427296,15.27644533,.00028347,43.0045,137.7225,270.1019,89.9508,0,U,66422,999,3294,.64640685E-3,.17604E-3,0
STARLINK-35618,2025-259B,2026-06-05T15:50:17.702304,15.27661036,.00018204,43.0032,137.6850,283.9576,76.1073,0,U,66423,999,3294,.75703616E-3,.2068E-3,0
STARLINK-35588,2025-259C,2026-06-05T15:46:35.515200,15.27589059,.00017051,43.0034,137.6626,268.8496,91.2160,0,U,66424,999,3294,.65769097E-3,.17885E-3,0
STARLINK-35555,2025-259D,2026-06-05T06:16:06.165408,15.27596640,.0001219,43.0014,139.8420,280.4339,79.6375,0,U,66425,999,3288,.60683E-3,.16482E-3,0
STARLINK-35589,2025-259E,2026-06-05T15:37:20.329536,15.27590867,.00017305,42.9971,137.6098,270.0191,90.0463,0,U,66426,999,3294,.59865788E-3,.16254E-3,0
STARLINK-35611,2025-259F,2026-06-05T15:31:49.678464,15.27560558,.00012526,43.0014,137.5754,270.3617,89.7091,0,U,66427,999,3294,.64150449E-3,.17422E-3,0
STARLINK-35610,2025-259G,2026-06-05T15:26:15.497952,15.27599576,.00016396,42.9998,137.5456,267.6290,92.4374,0,U,66428,999,3294,.622414E-3,.16915E-3,0
STARLINK-35533,2025-259H,2026-06-05T15:20:43.144800,15.27579179,.00018293,43.0000,137.5157,279.6152,80.4493,0,U,66429,999,3294,.63386431E-3,.17221E-3,0
STARLINK-35470,2025-259J,2026-06-05T15:15:10.034784,15.27561451,.00018701,43.0014,137.4886,268.6946,91.3691,0,U,66430,999,3294,.75828342E-3,.20651E-3,0
STARLINK-35439,2025-259K,2026-06-06T04:00:03.998880,15.27574624,.0001178,42.9996,134.4551,265.2238,153.6311,0,U,66431,999,590,-.16095E-3,-.4687E-4,0
STARLINK-35446,2025-259L,2026-06-05T15:09:35.400672,15.27634923,.00011806,43.0011,137.4568,292.2661,67.8065,0,U,66432,999,3294,.73294815E-3,.19995E-3,0
STARLINK-35457,2025-259M,2026-06-05T05:40:58.222272,15.27620110,.0000693,42.9983,139.6492,243.2155,116.8626,0,U,66433,999,3288,.62147E-3,.169E-3,0
STARLINK-35389,2025-259N,2026-06-05T05:39:06.615072,15.27623201,.0000637,42.9976,139.6410,225.2893,134.7907,0,U,66434,999,3288,.58797E-3,.15974E-3,0
STARLINK-35502,2025-259P,2026-06-05T05:29:50.753760,15.27645918,.000181,43.0033,139.5924,260.8951,99.1696,0,U,66435,999,3288,.60344E-3,.16414E-3,0
