[ {"name": "STARLINK-35671", "line1": "1 66392U 25257N   26156.31453377  .00020516  00000+0  70258-3 0  9998", "line2": "2 66392  53.1577 169.7034 0001517  92.0733 268.0441 15.30215023 33153"}, {"name": "STARLINK-35652", "line1": "1 66393U 25257P   26156.30937055  .00015498  00000+0  53416-3 0  9998", "line2": "2 66393  53.1588 170.3819 0001355  81.3404 278.7751 15.30208506 33140"}, {"name": "STARLINK-35672", "line1": "1 66394U 25257Q   26156.30403220  .00033484  00000+0  99700-3 0  9992", "line2": "2 66394  53.1577 168.9296 0001234  99.3422 260.7720 15.34423044 33165"}, {"name": "STARLINK-35681", "line1": "1 66395U 25257R   26156.52736219  .00019176  00000+0  65790-3 0  9998", "line2": "2 66395  53.1555 168.8951 0001161  79.3746 280.7386 15.30200133 33107"}, {"name": "STARLINK-35669", "line1": "1 66396U 25257S   26156.67172481  .00028402  00000+0  84836-3 0  9994", "line2": "2 66396  53.1581 166.9572 0001083  89.4207 270.6920 15.34407201 33226"}, {"name": "STARLINK-35510", "line1": "1 66397U 25257T   26156.31559235  .00018663  00000+0  64040-3 0  9995", "line2": "2 66397  53.1575 169.7089 0001973  31.8627 328.2492 15.30212049 33155"}, {"name": "STARLINK-35642", "line1": "1 66398U 25257U   26156.65287447  .00036274  00000+0  10808-2 0  9996", "line2": "2 66398  53.1568 167.5514 0001262 108.4932 251.6208 15.34361981 33213"}, {"name": "STARLINK-35657", "line1": "1 66399U 25257V   26156.51627160  .00023346  00000+0  69996-3 0  9991", "line2": "2 66399  53.1564 168.1197 0001109  77.6950 282.4176 15.34399018 33185"}, {"name": "STARLINK-35667", "line1": "1 66400U 25257W   26156.30823612  .00021616  00000+0  64866-3 0  9990", "line2": "2 66400  53.1599 168.9575 0001287  77.6834 282.4313 15.34417966 33166"}, {"name": "STARLINK-35668", "line1": "1 66401U 25257X   26156.30613472  .00023269  00000+0  69744-3 0  9998", "line2": "2 66401  53.1582 168.9403 0001142  97.5734 262.5399 15.34410446 33168"}, {"name": "STARLINK-35602", "line1": "1 66403U 25257Z   26155.51819211  .00022194  00000+0  66612-3 0  9998", "line2": "2 66403  53.1586 172.5593 0001285  59.9730 300.1400 15.34396374 33043"}, {"name": "STARLINK-35691", "line1": "1 66404U 25257AA  26155.25343669  .00035019  00000+0  10422-2 0  9996", "line2": "2 66404  53.1580 173.7395 0001220  80.0242 280.0899 15.34415376 33001"}, {"name": "STARLINK-35683", "line1": "1 66405U 25257AB  26156.31876227  .00026032  00000+0  77851-3 0  9991", "line2": "2 66405  53.1577 169.0176 0001377  51.4427 308.6699 15.34416753 33097"}, {"name": "STARLINK-34840", "line1": "1 66406U 25257AC  26156.35441987  .00026679  00000+0  79679-3 0  9994", "line2": "2 66406  53.1582 168.5215 0000893 103.6727 256.4375 15.34445331 33115"}, {"name": "STARLINK-35686", "line1": "1 66407U 25257AD  26156.67802373  .00028362  00000+0  84802-3 0  9995", "line2": "2 66407  53.1567 166.9915 0002535 177.4814 182.6202 15.34374136 33224"}, {"name": "STARLINK-35679", "line1": "1 66408U 25257AE  26156.35654216  .00018051  00000+0  54395-3 0  9990", "line2": "2 66408  53.1576 168.5375 0001072  77.9176 282.1947 15.34408500 33172"}, {"name": "STARLINK-35617", "line1": "1 66422U 25259A   26156.66507439  .00017604  00000+0  64641-3 0  9994", "line2": "2 66422  43.0045 137.7225 0002834 270.1019  89.9508 15.27644533 32949"}, {"name": "STARLINK-35618", "line1": "1 66423U 25259B   26156.65992711  .00020680  00000+0  75704-3 0  9995", "line2": "2 66423  43.0032 137.6850 0001820 283.9576  76.1073 15.27661036 32945"}, {"name": "STARLINK-35588", "line1": "1 66424U 25259C   26156.65735550  .00017885  00000+0  65769-3 0  9995", "line2": "2 66424  43.0034 137.6626 0001705 268.8496  91.2160 15.27589059 32943"}, {"name": "STARLINK-35555", "line1": "1 66425U 25259D   26156.26118247  .00016482  00000+0  60683-3 0  9993", "line2": "2 66425  43.0014 139.8420 0001219 280.4339  79.6375 15.27596640 32889"}, {"name": "STARLINK-35589", "line1": "1 66426U 25259E   26156.65092974  .00016254  00000+0  59866-3 0  9993", "line2": "2 66426  42.9971 137.6098 0001730 270.0191  90.0463 15.27590867 32943"}, {"name": "STARLINK-35611", "line1": "1 66427U 25259F   26156.64710276  .00017422  00000+0  64150-3 0  9995", "line2": "2 66427  43.0014 137.5754 0001252 270.3617  89.7091 15.27560558 32943"}, {"name": "STARLINK-35610", "line1": "1 66428U 25259G   26156.64323493  .00016915  00000+0  62241-3 0  9992", "line2": "2 66428  42.9998 137.5456 0001639 267.6290  92.4374 15.27599576 32944"}, {"name": "STARLINK-35533", "line1": "1 66429U 25259H   26156.63938825  .00017221  00000+0  63386-3 0  9995", "line2": "2 66429  43.0000 137.5157 0001829 279.6152  80.4493 15.27579179 32946"}, {"name": "STARLINK-35470", "line1": "1 66430U 25259J   26156.63553281  .00020651  00000+0  75828-3 0  9991", "line2": "2 66430  43.0014 137.4886 0001870 268.6946  91.3691 15.27561451 32941"}, {"name": "STARLINK-35439", "line1": "1 66431U 25259K   26157.16671295 -.00004687  00000+0 -16095-3 0  9991", "line2": "2 66431  42.9996 134.4551 0001178 265.2238 153.6311 15.27574624  5906"}, {"name": "STARLINK-35446", "line1": "1 66432U 25259L   26156.63165973  .00019995  00000+0  73295-3 0  9995", "line2": "2 66432  43.0011 137.4568 0001180 292.2661  67.8065 15.27634923 32946"}, {"name": "STARLINK-35457", "line1": "1 66433U 25259M   26156.23678498  .00016900  00000+0  62147-3 0  9990", "line2": "2 66433  42.9983 139.6492 0000693 243.2155 116.8626 15.27620110 32889"}, {"name": "STARLINK-35389", "line1": "1 66434U 25259N   26156.23549323  .00015974  00000+0  58797-3 0  9991", "line2": "2 66434  42.9976 139.6410 0000637 225.2893 134.7907 15.27623201 32884"}, {"name": "STARLINK-35502", "line1": "1 66435U 25259P   26156.22905965  .00016414  00000+0  60344-3 0  9990", "line2": "2 66435  43.0033 139.5924 0001810 260.8951  99.1696 15.27645918 32882"}]